STARLINK-37187          
1 68399U 26063V   26095.58336806 -.02218274  12905-2 -77882-2 0  9994
2 68399  97.2802 236.6153 0001863  65.4882 176.6430 15.89351943  2784
STARLINK-36235          
1 68400U 26063W   26095.58336806 -.02272685  13544-2 -78955-2 0  9995
2 68400  97.2798 236.6186 0001455  81.6253 167.9437 15.89569796  2783
STARLINK-37175          
1 68401U 26063X   26095.58336806 -.02281369  13656-2 -78898-2 0  9995
2 68401  97.2798 236.6208 0001553  74.7885 178.5509 15.89660949  2782
STARLINK-36360          
1 68402U 26063Y   26095.58336806 -.02311224  14015-2 -79511-2 0  9993
2 68402  97.2796 236.6221 0001596  80.8118 176.2282 15.89768771  2785
STARLINK-37218          
1 68403U 26063Z   26095.58336806 -.02317916  14127-2 -78817-2 0  9990
2 68403  97.2799 236.6263 0001614  70.4061 193.6015 15.90001884  2782
STARLINK-37188          
1 68404U 26063AA  26095.58336806 -.02305862  13971-2 -78817-2 0  9994
2 68404  97.2798 236.6242 0001669  70.0666 190.3088 15.89896685  2789
SHIYAN-33               
1 68405U 26064A   26095.54652693  .00007354  00000+0  31264-3 0  9990
2 68405  97.4650 171.4467 0013821 195.6091 164.4722 15.23248214  1438
LPNTSAT-001 (IOD-1)     
1 68408U 26065A   26091.17010600  .00004750  00000+0  23469-3 0  9990
2 68408  97.4137 333.2788 0015408 273.4606  86.4866 15.18233471   574
LPNTSAT-002 (IOD-2)     
1 68409U 26065B   26092.42247422  .00001915  00000+0  96696-4 0  9997
2 68409  97.4055 334.5080 0012738 262.3917  97.5871 15.18229138   741
ELECTRON KICK STAGE R/B 
1 68411U 26065D   26093.44277751  .00267226  22379-5  34497-3 0  9999
2 68411  97.4160 336.0543 0176039  10.7329 349.7619 15.83817593   965
XINZHENGCHENG-01        
1 68412U 26066A   26092.99755543  .00001283  00000+0  13573-3 0  9992
2 68412  84.8508 275.7933 0023441 189.3714 170.7075 14.88095472   543
LIJIAN-2 R/B            
1 68413U 26066B   26095.51086236  .03287589 -14478-5  28168-3 0  9995
2 68413  84.6995 273.6802 0479541 189.8606 169.2983 15.34247497   926
2026-066C               
1 68414U 26066C   26093.80455066  .00002339  00000+0  22927-3 0  9998
2 68414  85.1331 274.8711 0065547  46.0550 314.6055 14.90103412   664
SL-4 R/B                
1 68537U 26061S   26095.55630583  .00209802  15074-4  59620-3 0  9998
2 68537  82.3043  94.1465 0023901  22.4773 337.7542 15.92742461  2048
TACHELES                
1 68539U 26069B   26092.55069444 -.00190496  11727-5 -71298-2 0  9993
2 68539  28.3448 359.8421 8430033  77.7942 194.3023  1.02407762    02
SWC-1                   
1 68540U 26069C   26092.51428241 -.00154659  00000+0 -17117+1 0  9990
2 68540  28.3462 359.8168 8375109  77.1630 217.7352  1.01595625    08
K-RADCUBE               
1 68541U 26069D   26092.67815972 -.00078411  19505-5 -17218-4 0  9992
2 68541  28.3341 359.8703 8450105  77.6642 243.1767  1.02517944    33
MERIDIAN-M 21L          
1 68571U 26071A   26093.32069436 -.00001265  00000+0  16587-2 0  9999
2 68571  62.7917 238.8364 7241466 284.9481  10.7459  1.98618778    13
FREGAT R/B              
1 68572U 26071B   26093.32132148 -.00001541  00000+0  35052-3 0  9997
2 68572  63.0589 237.9448 7313819 284.9724  10.3188  2.01041412    13
